1 08820U 76039A   03336.91817745 -.00000021  00000-0  10000-3 0    90
2 08820 109.8315 239.3629 0044414 265.4111  94.1462  6.38664535387839
